RADFXSAT (FOX-1B)       
1 43017U 17073E   25179.61063294  .00005563  00000+0  28311-3 0  9994
2 43017  97.5214  49.9014 0173525 101.7070 260.3684 15.04979365412073
DIWATA-2B               
1 43678U 18084H   25179.82137071  .00001250  00000+0  11015-3 0  9990
2 43678  98.1028 356.6802 0008079 216.5978 143.4692 14.98391957363265
ES'HAIL 2               
1 43700U 18090A   25179.57421328  .00000138  00000+0  00000+0 0  9998
2 43700   0.0221  26.9866 0002097 107.9451  14.4950  1.00268543 24135
FOX-1CLIFF (AO-95)      
1 43770U 18099N   25179.11341369  .00006791  00000+0  34151-3 0  9999
2 43770  97.4901 236.9963 0011807 142.3227 217.8836 15.17500518359363
ITASAT                  
1 43786U 18099AE  25179.72478557  .00003672  00000+0  21035-3 0  9995
2 43786  97.4547 233.6494 0015610 136.2480 223.9991 15.13124106359358
JY1SAT (JO-97)          
1 43803U 18099AX  25179.13655358  .00007654  00000+0  34609-3 0  9991
2 43803  97.4648 238.0500 0009020  85.0581 275.1684 15.21176211359595
UWE-4                   
1 43880U 18111E   25179.48925296  .00009276  00000+0  35908-3 0  9995
2 43880  97.5892  92.6522 0013268 137.2405 222.9867 15.26333324356511
DUCHIFAT-3              
1 44854U 19089C   25179.53107000  .00029726  00000+0  55369-3 0  9998
2 44854  36.9411 234.5675 0003488 126.4240 233.6839 15.47951573305958
TIANYAN 01              
1 44881U 19093C   25179.82299500  .00000547  00000+0  69220-4 0  9994
2 44881  97.7922 255.0705 0014234 162.8165 197.3535 14.85632370298933
RS-44 & BREEZE-KM R/B   
1 44909U 19096E   25179.47347276  .00000013  00000+0  13455-4 0  9990
2 44909  82.5200 214.7255 0216337 251.3157 106.4351 12.79741432257102
SALSAT                  
1 46495U 20068K   25179.47412963  .00004716  00000+0  20374-3 0  9990
2 46495  97.8611 158.3788 0013145  96.5720 263.7012 15.22950054261402
LEDSAT                  
1 49069U 21073D   25179.71817950  .00052703  00000+0  57766-3 0  9993
2 49069  97.3877 262.0892 0007232   9.3900 350.7492 15.63071259214427
XW-3 (CAS-9)            
1 50466U 21131B   25179.78876702  .00000297  00000+0  10643-3 0  9992
2 50466  98.5109 269.0479 0005400  83.4846 276.6958 14.40832682184211
GREENCUBE (IO-117)      
1 53109U 22080E   25175.99877741 -.00000003  00000+0  00000+0 0  9994
2 53109  70.1411  62.4576 0008684   6.6739 353.4035  6.42583727 69115
