[
  {
    "OBJECT_NAME": "RADFXSAT (FOX-1B)",
    "OBJECT_ID": "2017-073E",
    "EPOCH": "2025-06-28T14:39:18.686016",
    "MEAN_MOTION": 15.04979365,
    "ECCENTRICITY": 0.0173525,
    "INCLINATION": 97.5214,
    "RA_OF_ASC_NODE": 49.9014,
    "ARG_OF_PERICENTER": 101.707,
    "MEAN_ANOMALY": 260.3684,
    "EPHEMERIS_TYPE": 0,
    "CLASSIFICATION_TYPE": "U",
    "NORAD_CAT_ID": 43017,
    "ELEMENT_SET_NO": 999,
    "REV_AT_EPOCH": 41207,
    "BSTAR": 0.00028311,
    "MEAN_MOTION_DOT": 5.563e-05,
    "MEAN_MOTION_DDOT": 0
  },
  {
    "OBJECT_NAME": "DIWATA-2B",
    "OBJECT_ID": "2018-084H",
    "EPOCH": "2025-06-28T19:42:46.429344",
    "MEAN_MOTION": 14.98391957,
    "ECCENTRICITY": 0.0008079,
    "INCLINATION": 98.1028,
    "RA_OF_ASC_NODE": 356.6802,
    "ARG_OF_PERICENTER": 216.5978,
    "MEAN_ANOMALY": 143.4692,
    "EPHEMERIS_TYPE": 0,
    "CLASSIFICATION_TYPE": "U",
    "NORAD_CAT_ID": 43678,
    "ELEMENT_SET_NO": 999,
    "REV_AT_EPOCH": 36326,
    "BSTAR": 0.00011015,
    "MEAN_MOTION_DOT": 1.25e-05,
    "MEAN_MOTION_DDOT": 0
  },
  {
    "OBJECT_NAME": "ES'HAIL 2",
    "OBJECT_ID": "2018-090A",
    "EPOCH": "2025-06-28T13:46:52.027392",
    "MEAN_MOTION": 1.00268543,
    "ECCENTRICITY": 0.0002097,
    "INCLINATION": 0.0221,
    "RA_OF_ASC_NODE": 26.9866,
    "ARG_OF_PERICENTER": 107.9451,
    "MEAN_ANOMALY": 14.495,
    "EPHEMERIS_TYPE": 0,
    "CLASSIFICATION_TYPE": "U",
    "NORAD_CAT_ID": 43700,
    "ELEMENT_SET_NO": 999,
    "REV_AT_EPOCH": 2413,
    "BSTAR": 0,
    "MEAN_MOTION_DOT": 1.38e-06,
    "MEAN_MOTION_DDOT": 0
  },
  {
    "OBJECT_NAME": "FOX-1CLIFF (AO-95)",
    "OBJECT_ID": "2018-099N",
    "EPOCH": "2025-06-28T02:43:18.942816",
    "MEAN_MOTION": 15.17500518,
    "ECCENTRICITY": 0.0011807,
    "INCLINATION": 97.4901,
    "RA_OF_ASC_NODE": 236.9963,
    "ARG_OF_PERICENTER": 142.3227,
    "MEAN_ANOMALY": 217.8836,
    "EPHEMERIS_TYPE": 0,
    "CLASSIFICATION_TYPE": "U",
    "NORAD_CAT_ID": 43770,
    "ELEMENT_SET_NO": 999,
    "REV_AT_EPOCH": 35936,
    "BSTAR": 0.00034151,
    "MEAN_MOTION_DOT": 6.791e-05,
    "MEAN_MOTION_DDOT": 0
  },
  {
    "OBJECT_NAME": "ITASAT",
    "OBJECT_ID": "2018-099AE",
    "EPOCH": "2025-06-28T17:23:41.473248",
    "MEAN_MOTION": 15.13124106,
    "ECCENTRICITY": 0.001561,
    "INCLINATION": 97.4547,
    "RA_OF_ASC_NODE": 233.6494,
    "ARG_OF_PERICENTER": 136.248,
    "MEAN_ANOMALY": 223.9991,
    "EPHEMERIS_TYPE": 0,
    "CLASSIFICATION_TYPE": "U",
    "NORAD_CAT_ID": 43786,
    "ELEMENT_SET_NO": 999,
    "REV_AT_EPOCH": 35935,
    "BSTAR": 0.00021035,
    "MEAN_MOTION_DOT": 3.672e-05,
    "MEAN_MOTION_DDOT": 0
  },
  {
    "OBJECT_NAME": "JY1SAT (JO-97)",
    "OBJECT_ID": "2018-099AX",
    "EPOCH": "2025-06-28T03:16:38.229312",
    "MEAN_MOTION": 15.21176211,
    "ECCENTRICITY": 0.000902,
    "INCLINATION": 97.4648,
    "RA_OF_ASC_NODE": 238.05,
    "ARG_OF_PERICENTER": 85.0581,
    "MEAN_ANOMALY": 275.1684,
    "EPHEMERIS_TYPE": 0,
    "CLASSIFICATION_TYPE": "U",
    "NORAD_CAT_ID": 43803,
    "ELEMENT_SET_NO": 999,
    "REV_AT_EPOCH": 35959,
    "BSTAR": 0.00034609,
    "MEAN_MOTION_DOT": 7.654e-05,
    "MEAN_MOTION_DDOT": 0
  },
  {
    "OBJECT_NAME": "UWE-4",
    "OBJECT_ID": "2018-111E",
    "EPOCH": "2025-06-28T11:44:31.455744",
    "MEAN_MOTION": 15.26333324,
    "ECCENTRICITY": 0.0013268,
    "INCLINATION": 97.5892,
    "RA_OF_ASC_NODE": 92.6522,
    "ARG_OF_PERICENTER": 137.2405,
    "MEAN_ANOMALY": 222.9867,
    "EPHEMERIS_TYPE": 0,
    "CLASSIFICATION_TYPE": "U",
    "NORAD_CAT_ID": 43880,
    "ELEMENT_SET_NO": 999,
    "REV_AT_EPOCH": 35651,
    "BSTAR": 0.00035908,
    "MEAN_MOTION_DOT": 9.276e-05,
    "MEAN_MOTION_DDOT": 0
  },
  {
    "OBJECT_NAME": "DUCHIFAT-3",
    "OBJECT_ID": "2019-089C",
    "EPOCH": "2025-06-28T12:44:44.448000",
    "MEAN_MOTION": 15.47951573,
    "ECCENTRICITY": 0.0003488,
    "INCLINATION": 36.9411,
    "RA_OF_ASC_NODE": 234.5675,
    "ARG_OF_PERICENTER": 126.424,
    "MEAN_ANOMALY": 233.6839,
    "EPHEMERIS_TYPE": 0,
    "CLASSIFICATION_TYPE": "U",
    "NORAD_CAT_ID": 44854,
    "ELEMENT_SET_NO": 999,
    "REV_AT_EPOCH": 30595,
    "BSTAR": 0.00055369,
    "MEAN_MOTION_DOT": 0.00029726,
    "MEAN_MOTION_DDOT": 0
  },
  {
    "OBJECT_NAME": "TIANYAN 01",
    "OBJECT_ID": "2019-093C",
    "EPOCH": "2025-06-28T19:45:06.768000",
    "MEAN_MOTION": 14.8563237,
    "ECCENTRICITY": 0.0014234,
    "INCLINATION": 97.7922,
    "RA_OF_ASC_NODE": 255.0705,
    "ARG_OF_PERICENTER": 162.8165,
    "MEAN_ANOMALY": 197.3535,
    "EPHEMERIS_TYPE": 0,
    "CLASSIFICATION_TYPE": "U",
    "NORAD_CAT_ID": 44881,
    "ELEMENT_SET_NO": 999,
    "REV_AT_EPOCH": 29893,
    "BSTAR": 6.922e-05,
    "MEAN_MOTION_DOT": 5.47e-06,
    "MEAN_MOTION_DDOT": 0
  },
  {
    "OBJECT_NAME": "RS-44 & BREEZE-KM R/B",
    "OBJECT_ID": "2019-096E",
    "EPOCH": "2025-06-28T11:21:48.046464",
    "MEAN_MOTION": 12.79741432,
    "ECCENTRICITY": 0.0216337,
    "INCLINATION": 82.52,
    "RA_OF_ASC_NODE": 214.7255,
    "ARG_OF_PERICENTER": 251.3157,
    "MEAN_ANOMALY": 106.4351,
    "EPHEMERIS_TYPE": 0,
    "CLASSIFICATION_TYPE": "U",
    "NORAD_CAT_ID": 44909,
    "ELEMENT_SET_NO": 999,
    "REV_AT_EPOCH": 25710,
    "BSTAR": 1.3455e-05,
    "MEAN_MOTION_DOT": 1.3e-07,
    "MEAN_MOTION_DDOT": 0
  },
  {
    "OBJECT_NAME": "SALSAT",
    "OBJECT_ID": "2020-068K",
    "EPOCH": "2025-06-28T11:22:44.800032",
    "MEAN_MOTION": 15.22950054,
    "ECCENTRICITY": 0.0013145,
    "INCLINATION": 97.8611,
    "RA_OF_ASC_NODE": 158.3788,
    "ARG_OF_PERICENTER": 96.572,
    "MEAN_ANOMALY": 263.7012,
    "EPHEMERIS_TYPE": 0,
    "CLASSIFICATION_TYPE": "U",
    "NORAD_CAT_ID": 46495,
    "ELEMENT_SET_NO": 999,
    "REV_AT_EPOCH": 26140,
    "BSTAR": 0.00020374,
    "MEAN_MOTION_DOT": 4.716e-05,
    "MEAN_MOTION_DDOT": 0
  },
  {
    "OBJECT_NAME": "LEDSAT",
    "OBJECT_ID": "2021-073D",
    "EPOCH": "2025-06-28T17:14:10.708800",
    "MEAN_MOTION": 15.63071259,
    "ECCENTRICITY": 0.0007232,
    "INCLINATION": 97.3877,
    "RA_OF_ASC_NODE": 262.0892,
    "ARG_OF_PERICENTER": 9.39,
    "MEAN_ANOMALY": 350.7492,
    "EPHEMERIS_TYPE": 0,
    "CLASSIFICATION_TYPE": "U",
    "NORAD_CAT_ID": 49069,
    "ELEMENT_SET_NO": 999,
    "REV_AT_EPOCH": 21442,
    "BSTAR": 0.00057766,
    "MEAN_MOTION_DOT": 0.00052703,
    "MEAN_MOTION_DDOT": 0
  },
  {
    "OBJECT_NAME": "XW-3 (CAS-9)",
    "OBJECT_ID": "2021-131B",
    "EPOCH": "2025-06-28T18:55:49.470528",
    "MEAN_MOTION": 14.40832682,
    "ECCENTRICITY": 0.00054,
    "INCLINATION": 98.5109,
    "RA_OF_ASC_NODE": 269.0479,
    "ARG_OF_PERICENTER": 83.4846,
    "MEAN_ANOMALY": 276.6958,
    "EPHEMERIS_TYPE": 0,
    "CLASSIFICATION_TYPE": "U",
    "NORAD_CAT_ID": 50466,
    "ELEMENT_SET_NO": 999,
    "REV_AT_EPOCH": 18421,
    "BSTAR": 0.00010643,
    "MEAN_MOTION_DOT": 2.97e-06,
    "MEAN_MOTION_DDOT": 0
  },
  {
    "OBJECT_NAME": "GREENCUBE (IO-117)",
    "OBJECT_ID": "2022-080E",
    "EPOCH": "2025-06-24T23:58:14.368224",
    "MEAN_MOTION": 6.42583727,
    "ECCENTRICITY": 0.0008684,
    "INCLINATION": 70.1411,
    "RA_OF_ASC_NODE": 62.4576,
    "ARG_OF_PERICENTER": 6.6739,
    "MEAN_ANOMALY": 353.4035,
    "EPHEMERIS_TYPE": 0,
    "CLASSIFICATION_TYPE": "U",
    "NORAD_CAT_ID": 53109,
    "ELEMENT_SET_NO": 999,
    "REV_AT_EPOCH": 6911,
    "BSTAR": 0,
    "MEAN_MOTION_DOT": -3e-08,
    "MEAN_MOTION_DDOT": 0
  }
]